[{"OBJECT_NAME":"CHECKMATE 4","OBJECT_ID":"2023-050C","EPOCH":"2026-03-09T17:33:56.570400","MEAN_MOTION":13.84801132,"ECCENTRICITY":0.00051188,"INCLINATION":81.0045,"RA_OF_ASC_NODE":167.2035,"ARG_OF_PERICENTER":230.7826,"MEAN_ANOMALY":129.2876,"EPHEMERIS_TYPE":0,"CLASSIFICATION_TYPE":"U","NORAD_CAT_ID":56164,"ELEMENT_SET_NO":999,"REV_AT_EPOCH":14837,"BSTAR":9.4449728e-5,"MEAN_MOTION_DOT":1.17e-6,"MEAN_MOTION_DDOT":0},{"OBJECT_NAME":"COSMOS 514","OBJECT_ID":"1972-062A","EPOCH":"2026-03-09T22:39:40.925088","MEAN_MOTION":13.8204281,"ECCENTRICITY":0.00113658,"INCLINATION":82.9714,"RA_OF_ASC_NODE":10.2275,"ARG_OF_PERICENTER":71.0033,"MEAN_ANOMALY":357.4031,"EPHEMERIS_TYPE":0,"CLASSIFICATION_TYPE":"U","NORAD_CAT_ID":6148,"ELEMENT_SET_NO":999,"REV_AT_EPOCH":69983,"BSTAR":7.2503045e-5,"MEAN_MOTION_DOT":9.4e-7,"MEAN_MOTION_DDOT":0}]
